{"type": "Feature", "properties": {"name": "Boswell Bay"}, "geometry": {"type": "Polygon", "coordinates": [[[-146.10633325576782, 60.412121415138195], [-146.09493589401245, 60.4106249809264], [-146.0852288049794, 60.40562833381271], [-146.08627203035854, 60.39293575836657], [-146.13756394483266, 60.39145785574617], [-146.18676940854854, 60.39189253298743], [-146.207546980683, 60.38502463257481], [-146.20824246426906, 60.39302269381482], [-146.18624779585897, 60.40597607560579], [-146.15686361434666, 60.4145826849836], [-146.12178516097325, 60.41075752526016], [-146.10633325576782, 60.412121415138195]]]}}