{"type": "Feature", "properties": {"name": "Unakwik Inlet scope"}, "geometry": {"type": "Polygon", "coordinates": [[[-147.60071295499802, 60.89349997043605], [-147.6352009120293, 60.901529864556956], [-147.63346220306406, 60.936304043861504], [-147.67032283312682, 60.937695011033604], [-147.69848991836346, 60.95090919916938], [-147.69814217657043, 60.96342790371893], [-147.65745638678416, 60.96933951420076], [-147.6609338047146, 60.98151047695733], [-147.6977944347774, 61.000984017367855], [-147.69153508250258, 61.037844647430624], [-147.6313757523058, 61.02880336081143], [-147.61468414623963, 61.037496905637596], [-147.58964673714038, 61.068619796115016], [-147.56808674597158, 61.0957436559726], [-147.58269190127947, 61.11973783969271], [-147.58095319231427, 61.151382342859804], [-147.54061514432104, 61.16424878920241], [-147.50827515756785, 61.15798943692759], [-147.494017744053, 61.14373202341282], [-147.52705321439228, 61.13295202782841], [-147.51070935011916, 61.11087042397002], [-147.4947132276391, 61.081312371561175], [-147.46758936778158, 61.07122785956294], [-147.47211001109116, 61.063490604667656], [-147.51210031729136, 61.053753834462434], [-147.51349128446353, 61.01445901184837], [-147.52461902184098, 60.982814508681194], [-147.52644466625446, 60.9345653348963], [-147.5267924080475, 60.926915015449296], [-147.5198375721866, 60.89826978524716], [-147.51861572265625, 60.89342355728147], [-147.60071295499802, 60.89349997043605]]]}}