{
  "type": "FeatureCollection",
  "features": [
    {
      "type": "Feature",
      "properties": {
        "name": "Sheep Bay",
        "district": "Eastern",
        "notes": "Rough Extent"
      },
      "geometry": {
        "type": "Polygon",
        "coordinates": [
          [
            [
              -146.17545473251488,
              60.63280687218993
            ],
            [
              -145.89778023442761,
              60.72023790948852
            ],
            [
              -145.89049431465273,
              60.698784923484716
            ],
            [
              -146.00464039112592,
              60.61783025931939
            ],
            [
              -146.17545473251488,
              60.63280687218993
            ]
          ]
        ]
      }
    },
    {
      "type": "Feature",
      "properties": {
        "name": "Plateau Creek",
        "district": "Eastern",
        "notes": "Rough extent, creek feature"
      },
      "geometry": {
        "type": "Polygon",
        "coordinates": [
          [
            [
              -146.1403618776364,
              60.709101314330184
            ],
            [
              -146.12946637911836,
              60.714246410852624
            ],
            [
              -146.12492658806917,
              60.704258870544415
            ],
            [
              -146.135216781114,
              60.703048259597985
            ],
            [
              -146.1403618776364,
              60.709101314330184
            ]
          ]
        ]
      }
    },
    {
      "type": "Feature",
      "properties": {
        "name": "Comfort Cove",
        "district": "Eastern",
        "notes": "Rough Extent"
      },
      "geometry": {
        "type": "Polygon",
        "coordinates": [
          [
            [
              -146.11628303882623,
              60.71485928457811
            ],
            [
              -146.10236101294208,
              60.7175831592076
            ],
            [
              -146.064226768129,
              60.71334602089505
            ],
            [
              -146.07300369749075,
              60.70275317511363
            ],
            [
              -146.11628303882623,
              60.71485928457811
            ]
          ]
        ]
      }
    },
    {
      "type": "Feature",
      "properties": {
        "name": "Olsen Bay",
        "district": "Eastern",
        "notes": "Rough Extent"
      },
      "geometry": {
        "type": "Polygon",
        "coordinates": [
          [
            [
              -146.23507423794638,
              60.720912339310374
            ],
            [
              -146.23386362699992,
              60.76207311148955
            ],
            [
              -146.169095941365,
              60.76721820801197
            ],
            [
              -146.16455615031583,
              60.725149477622885
            ],
            [
              -146.23507423794638,
              60.720912339310374
            ]
          ]
        ]
      }
    },
    {
      "type": "Feature",
      "properties": {
        "name": "Beartrap Bay",
        "district": "Eastern",
        "notes": "Rough Extent"
      },
      "geometry": {
        "type": "Polygon",
        "coordinates": [
          [
            [
              -146.05390932542946,
              60.75957335225241
            ],
            [
              -146.00760345672785,
              60.753520297520204
            ],
            [
              -145.96553472633883,
              60.7568494776229
            ],
            [
              -145.9779434885399,
              60.73536113332349
            ],
            [
              -146.06419951847428,
              60.7480725482612
            ],
            [
              -146.05390932542946,
              60.75957335225241
            ]
          ]
        ]
      }
    },
    {
      "type": "Feature",
      "properties": {
        "name": "Port Gravina",
        "district": "Eastern",
        "notes": "Rough Extent, contains other areas"
      },
      "geometry": {
        "type": "Polygon",
        "coordinates": [
          [
            [
              -146.49401357481864,
              60.67460605876946
            ],
            [
              -146.3426022465892,
              60.77915197588028
            ],
            [
              -146.26509406666221,
              60.78906581284773
            ],
            [
              -146.2641928087561,
              60.74310165963518
            ],
            [
              -146.1244978333063,
              60.76383059147618
            ],
            [
              -146.0334707847874,
              60.80979474468866
            ],
            [
              -146.03437204269352,
              60.72237272779423
            ],
            [
              -146.25067394016418,
              60.62774064765082
            ],
            [
              -146.49401357481864,
              60.67460605876946
            ]
          ]
        ]
      }
    },
    {
      "type": "Feature",
      "properties": {
        "name": "Saint Matthews Bay",
        "district": "Eastern",
        "notes": "Rough extent"
      },
      "geometry": {
        "type": "Polygon",
        "coordinates": [
          [
            [
              -146.3660349521485,
              60.72237272779423
            ],
            [
              -146.33809595705856,
              60.769238138912876
            ],
            [
              -146.28942803012765,
              60.78816455494158
            ],
            [
              -146.26058777713158,
              60.78546078122319
            ],
            [
              -146.30204564081345,
              60.71876769616974
            ],
            [
              -146.3660349521485,
              60.72237272779423
            ]
          ]
        ]
      }
    },
    {
      "type": "Feature",
      "properties": {
        "name": "Snug Corner Cove",
        "district": "Eastern",
        "notes": "Rough"
      },
      "geometry": {
        "type": "Polygon",
        "coordinates": [
          [
            [
              -146.6952805059922,
              60.740868239638786
            ],
            [
              -146.6042534574733,
              60.758893397761376
            ],
            [
              -146.6204760997836,
              60.70031163386306
            ],
            [
              -146.6952805059922,
              60.740868239638786
            ]
          ]
        ]
      }
    },
    {
      "type": "Feature",
      "properties": {
        "name": "Two Moon Bay",
        "district": "Eastern",
        "notes": "Rough extent"
      },
      "geometry": {
        "type": "Polygon",
        "coordinates": [
          [
            [
              -146.6020626330177,
              60.7591894910724
            ],
            [
              -146.54792383281796,
              60.770933886882915
            ],
            [
              -146.48977475112196,
              60.75030958204486
            ],
            [
              -146.49006119980024,
              60.7279665851371
            ],
            [
              -146.5244350411969,
              60.724815649675676
            ],
            [
              -146.58659440438922,
              60.72739368778047
            ],
            [
              -146.58659440438922,
              60.72739368778047
            ],
            [
              -146.6020626330177,
              60.7591894910724
            ]
          ]
        ]
      }
    },
    {
      "type": "Feature",
      "properties": {
        "name": "Irish Cove",
        "district": "Eastern",
        "notes": "Rough extent"
      },
      "geometry": {
        "type": "Polygon",
        "coordinates": [
          [
            [
              -146.46870234294275,
              60.770634813765575
            ],
            [
              -146.43919812907728,
              60.77808247940152
            ],
            [
              -146.42029251630913,
              60.74084415122181
            ],
            [
              -146.42029251630913,
              60.74084415122181
            ],
            [
              -146.4406303724688,
              60.748291816857744
            ],
            [
              -146.4406303724688,
              60.748291816857744
            ],
            [
              -146.46870234294275,
              60.770634813765575
            ]
          ]
        ]
      }
    },
    {
      "type": "Feature",
      "properties": {
        "name": "Whalen Bay",
        "district": "Eastern",
        "notes": "Rough"
      },
      "geometry": {
        "type": "Polygon",
        "coordinates": [
          [
            [
              -146.26448317885288,
              60.808182007381454
            ],
            [
              -146.2490149502244,
              60.82135864658349
            ],
            [
              -146.18341820289243,
              60.823936684688256
            ],
            [
              -146.17940792139615,
              60.8153432243391
            ],
            [
              -146.23268737556097,
              60.80760911002487
            ],
            [
              -146.23268737556097,
              60.80760911002487
            ],
            [
              -146.23268737556097,
              60.80760911002487
            ],
            [
              -146.23268737556097,
              60.80760911002487
            ],
            [
              -146.26448317885288,
              60.808182007381454
            ]
          ]
        ]
      }
    },
    {
      "type": "Feature",
      "properties": {
        "name": "Fidalgo River Delta",
        "district": "Eastern",
        "notes": "Rough outline of river delta"
      },
      "geometry": {
        "type": "Polygon",
        "coordinates": [
          [
            [
              -146.20805280638407,
              60.87755210693273
            ],
            [
              -146.1974542052868,
              60.90533762872835
            ],
            [
              -146.18026728458844,
              60.91307174304258
            ],
            [
              -146.16909578613453,
              60.898462860448994
            ],
            [
              -146.17597055441385,
              60.86781285187027
            ],
            [
              -146.20805280638407,
              60.87755210693273
            ]
          ]
        ]
      }
    },
    {
      "type": "Feature",
      "properties": {
        "name": "Sunny River Delta",
        "district": "Eastern",
        "notes": "Rough river delta"
      },
      "geometry": {
        "type": "Polygon",
        "coordinates": [
          [
            [
              -146.25341478941203,
              60.87817491426564
            ],
            [
              -146.26104436823613,
              60.90392474279698
            ],
            [
              -146.26104436823613,
              60.90392474279698
            ],
            [
              -146.26104436823613,
              60.90392474279698
            ],
            [
              -146.250553697353,
              60.921091295151165
            ],
            [
              -146.23147975029275,
              60.91727650573912
            ],
            [
              -146.2171742899976,
              60.88580449308975
            ],
            [
              -146.25341478941203,
              60.87817491426564
            ]
          ]
        ]
      }
    },
    {
      "type": "Feature",
      "properties": {
        "name": "Fidalgo Bay",
        "district": "Eastern",
        "notes": "Rough extent"
      },
      "geometry": {
        "type": "Polygon",
        "coordinates": [
          [
            [
              -146.21248645912408,
              60.882278440149946
            ],
            [
              -146.03414505411084,
              60.84126945397047
            ],
            [
              -146.05608009323012,
              60.81170483602707
            ],
            [
              -146.24109737971446,
              60.83650096720537
            ],
            [
              -146.21248645912408,
              60.882278440149946
            ]
          ]
        ]
      }
    },
    {
      "type": "Feature",
      "properties": {
        "name": "Short Creek",
        "district": "Eastern",
        "notes": "Creek rough"
      },
      "geometry": {
        "type": "Polygon",
        "coordinates": [
          [
            [
              -146.26712354382576,
              60.85566301131084
            ],
            [
              -146.2698462205465,
              60.84976387841584
            ],
            [
              -146.2902662959521,
              60.85611679076424
            ],
            [
              -146.28663606032444,
              60.864511710653204
            ],
            [
              -146.26712354382576,
              60.85566301131084
            ]
          ]
        ]
      }
    },
    {
      "type": "Feature",
      "properties": {
        "name": "Fish Bay",
        "district": "Eastern",
        "notes": "Rough Extent"
      },
      "geometry": {
        "type": "Polygon",
        "coordinates": [
          [
            [
              -146.4599798115453,
              60.81334807727593
            ],
            [
              -146.46043359099878,
              60.82423878415886
            ],
            [
              -146.46043359099878,
              60.82423878415886
            ],
            [
              -146.46043359099878,
              60.82423878415886
            ],
            [
              -146.46043359099878,
              60.82423878415886
            ],
            [
              -146.46043359099878,
              60.82423878415886
            ],
            [
              -146.45861847318494,
              60.829684137600395
            ],
            [
              -146.45861847318494,
              60.829684137600395
            ],
            [
              -146.38510620172477,
              60.856003345900874
            ],
            [
              -146.36740880303992,
              60.8423899622972
            ],
            [
              -146.40598005658384,
              60.81470941563622
            ],
            [
              -146.4599798115453,
              60.81334807727593
            ]
          ]
        ]
      }
    },
    {
      "type": "Feature",
      "properties": {
        "name": "Banzer Creek",
        "district": "Eastern",
        "notes": "Rough Creek"
      },
      "geometry": {
        "type": "Polygon",
        "coordinates": [
          [
            [
              -146.5611652446655,
              60.819507151853095
            ],
            [
              -146.5577061062088,
              60.82235257219654
            ],
            [
              -146.53449640301554,
              60.82899188633114
            ],
            [
              -146.53114884967036,
              60.82313366797707
            ],
            [
              -146.53806712658374,
              60.81415106650087
            ],
            [
              -146.55859878710083,
              60.80952028437333
            ],
            [
              -146.5611652446655,
              60.819507151853095
            ]
          ]
        ]
      }
    },
    {
      "type": "Feature",
      "properties": {
        "name": "Landlocked Bay",
        "district": "Eastern",
        "notes": "Rough extent"
      },
      "geometry": {
        "type": "Polygon",
        "coordinates": [
          [
            [
              -146.62567791753708,
              60.82045495587914
            ],
            [
              -146.60603893791202,
              60.86196461735939
            ],
            [
              -146.52971472164194,
              60.876247511632116
            ],
            [
              -146.50427331621856,
              60.8637499791435
            ],
            [
              -146.53150008342604,
              60.81911593454107
            ],
            [
              -146.55426344617325,
              60.808850104282506
            ],
            [
              -146.62567791753708,
              60.82045495587914
            ]
          ]
        ]
      }
    },
    {
      "type": "Feature",
      "properties": {
        "name": "Galena Bay",
        "district": "Eastern",
        "notes": "Rough Extent"
      },
      "geometry": {
        "type": "Polygon",
        "coordinates": [
          [
            [
              -146.717731493665,
              60.974852363228784
            ],
            [
              -146.55972697577255,
              60.956106064495756
            ],
            [
              -146.54053433659354,
              60.93780610620876
            ],
            [
              -146.58963178565617,
              60.914596403015544
            ],
            [
              -146.64944140542335,
              60.92084516925984
            ],
            [
              -146.70166323760816,
              60.92263053104398
            ],
            [
              -146.7342460901679,
              60.94271585111502
            ],
            [
              -146.7489753248867,
              60.95655240494175
            ],
            [
              -146.717731493665,
              60.974852363228784
            ]
          ]
        ]
      }
    },
    {
      "type": "Feature",
      "properties": {
        "name": "Jack Bay",
        "district": "Eastern",
        "notes": "Rough Extent"
      },
      "geometry": {
        "type": "Polygon",
        "coordinates": [
          [
            [
              -146.6532485993923,
              61.0523352992145
            ],
            [
              -146.54835859457668,
              61.04340849029401
            ],
            [
              -146.54835859457668,
              61.029571936467356
            ],
            [
              -146.4666782929543,
              61.00859393550419
            ],
            [
              -146.4666782929543,
              60.99297201989339
            ],
            [
              -146.61486332103422,
              61.00725491416608
            ],
            [
              -146.6684241745571,
              61.03135729825144
            ],
            [
              -146.6532485993923,
              61.0523352992145
            ]
          ]
        ]
      }
    },
    {
      "type": "Feature",
      "properties": {
        "name": "Mineral Creek Delta, Gold Creek, and Kadis Creek",
        "district": "Eastern",
        "notes": ""
      },
      "geometry": {
        "type": "Polygon",
        "coordinates": [
          [
            [
              -146.49807549173877,
              61.124423170222975
            ],
            [
              -146.49495110861662,
              61.1574523632287
            ],
            [
              -146.353014846781,
              61.148525554308286
            ],
            [
              -146.39095378469304,
              61.124423170222975
            ],
            [
              -146.49807549173877,
              61.124423170222975
            ]
          ]
        ]
      }
    },
    {
      "type": "Feature",
      "properties": {
        "name": "Head of Port Valdez",
        "district": "Eastern",
        "notes": "Rough Notes"
      },
      "geometry": {
        "type": "Polygon",
        "coordinates": [
          [
            [
              -146.35168289427276,
              61.132449937430415
            ],
            [
              -146.30080008342605,
              61.15164257660947
            ],
            [
              -146.22581488849403,
              61.08290614792183
            ],
            [
              -146.34364876624434,
              61.07755006256947
            ],
            [
              -146.35168289427276,
              61.132449937430415
            ]
          ]
        ]
      }
    },
    {
      "type": "Feature",
      "properties": {
        "name": "Allison Creek, Sawmill Creek, and the Alyeska Safety Zone",
        "district": "Eastern",
        "notes": "Rough Notes"
      },
      "geometry": {
        "type": "Polygon",
        "coordinates": [
          [
            [
              -146.57705081662544,
              61.080645127546816
            ],
            [
              -146.37084153056242,
              61.09091095780539
            ],
            [
              -146.3703951901164,
              61.04002814695866
            ],
            [
              -146.5516094112021,
              61.05520372212344
            ],
            [
              -146.57705081662544,
              61.080645127546816
            ]
          ]
        ]
      }
    },
    {
      "type": "Feature",
      "properties": {
        "name": "Sawmill Bay",
        "district": "Eastern",
        "notes": "rough extent"
      },
      "geometry": {
        "type": "Polygon",
        "coordinates": [
          [
            [
              -146.8059609369489,
              61.03003053104392
            ],
            [
              -146.83809744906262,
              61.06529142627987
            ],
            [
              -146.83809744906262,
              61.06529142627987
            ],
            [
              -146.83809744906262,
              61.06529142627987
            ],
            [
              -146.83809744906262,
              61.06529142627987
            ],
            [
              -146.78453659553975,
              61.097874278839576
            ],
            [
              -146.76445127546867,
              61.049223170222966
            ],
            [
              -146.8059609369489,
              61.03003053104392
            ]
          ]
        ]
      }
    },
    {
      "type": "Feature",
      "properties": {
        "name": "Long Bay",
        "district": "Northern",
        "notes": ""
      },
      "geometry": {
        "type": "Polygon",
        "coordinates": [
          [
            [
              -147.2754818782977,
              60.97427140084166
            ],
            [
              -147.30380913414038,
              60.987221003512566
            ],
            [
              -147.27103045237956,
              61.0106921583537
            ],
            [
              -147.25949721250075,
              60.9943028174733
            ],
            [
              -147.2657696762945,
              60.97730646396764
            ],
            [
              -147.2754818782977,
              60.97427140084166
            ]
          ]
        ]
      }
    },
    {
      "type": "Feature",
      "properties": {
        "name": "Granite Bay",
        "district": "Northern",
        "notes": ""
      },
      "geometry": {
        "type": "Polygon",
        "coordinates": [
          [
            [
              -147.45072893599053,
              60.92050317831667
            ],
            [
              -147.4437241106213,
              60.9249784834137
            ],
            [
              -147.38418309498283,
              60.94210138987186
            ],
            [
              -147.38029152533326,
              60.92497848341368
            ],
            [
              -147.44352953213883,
              60.908828469367954
            ],
            [
              -147.45072893599053,
              60.92050317831667
            ]
          ]
        ]
      }
    },
    {
      "type": "Feature",
      "properties": {
        "name": "Cedar Bay",
        "district": "Northern",
        "notes": ""
      },
      "geometry": {
        "type": "Polygon",
        "coordinates": [
          [
            [
              -147.4546376250934,
              60.92226422213268
            ],
            [
              -147.45713216465862,
              60.943259930139796
            ],
            [
              -147.4484012761804,
              60.9472096177847
            ],
            [
              -147.43114737752109,
              60.96487927303827
            ],
            [
              -147.39539231041982,
              60.984419832965685
            ],
            [
              -147.36899176668808,
              60.98047014532078
            ],
            [
              -147.3808408296228,
              60.95905868071945
            ],
            [
              -147.4419570489703,
              60.9276690578573
            ],
            [
              -147.4546376250934,
              60.92226422213268
            ]
          ]
        ]
      }
    },
    {
      "type": "Feature",
      "properties": {
        "name": "Eaglek Bay",
        "district": "Northern",
        "notes": ""
      },
      "geometry": {
        "type": "Polygon",
        "coordinates": [
          [
            [
              -147.75039777536176,
              60.828328334214746
            ],
            [
              -147.83722137336957,
              60.86807889715803
            ],
            [
              -147.83722137336957,
              60.88769266176827
            ],
            [
              -147.795117158673,
              60.875139852417696
            ],
            [
              -147.78648710224454,
              60.88795417862969
            ],
            [
              -147.820745811097,
              60.91593648280692
            ],
            [
              -147.76582727018845,
              60.938426932893236
            ],
            [
              -147.7425522695177,
              60.94758002304468
            ],
            [
              -147.68344945882563,
              60.94470333756855
            ],
            [
              -147.71352389789462,
              60.922997438066595
            ],
            [
              -147.70541687518906,
              60.897368785642634
            ],
            [
              -147.65520563778696,
              60.90652187579403
            ],
            [
              -147.64239131157495,
              60.89893788681139
            ],
            [
              -147.65363653661814,
              60.89109238096731
            ],
            [
              -147.66488176166132,
              60.84140417728815
            ],
            [
              -147.75039777536176,
              60.828328334214746
            ]
          ]
        ]
      }
    },
    {
      "type": "Feature",
      "properties": {
        "name": "Wells Bay",
        "district": "Northern",
        "notes": ""
      },
      "geometry": {
        "type": "Polygon",
        "coordinates": [
          [
            [
              -147.50323793159217,
              60.951597153520645
            ],
            [
              -147.49053149189305,
              60.984229600929744
            ],
            [
              -147.50641454151696,
              61.016284482898016
            ],
            [
              -147.4893763610113,
              61.02408161634978
            ],
            [
              -147.46973913602173,
              61.00415560863976
            ],
            [
              -147.41053867833259,
              61.03390022884456
            ],
            [
              -147.39176780150433,
              61.00415560863975
            ],
            [
              -147.44345990846216,
              60.98711742813409
            ],
            [
              -147.46251956801086,
              60.94784297815495
            ],
            [
              -147.50323793159217,
              60.951597153520645
            ]
          ]
        ]
      }
    },
    {
      "type": "Feature",
      "properties": {
        "name": "Siwash Bay",
        "district": "Northern",
        "notes": ""
      },
      "geometry": {
        "type": "Polygon",
        "coordinates": [
          [
            [
              -147.62401337722522,
              60.96741717922066
            ],
            [
              -147.61852650553695,
              60.9555770876828
            ],
            [
              -147.6661756544087,
              60.94287064798365
            ],
            [
              -147.69851931909741,
              60.950956564155796
            ],
            [
              -147.68870070660262,
              60.96366300385496
            ],
            [
              -147.62401337722522,
              60.96741717922066
            ]
          ]
        ]
      }
    },
    {
      "type": "Feature",
      "properties": {
        "name": "Jonah Bay",
        "district": "Northern",
        "notes": ""
      },
      "geometry": {
        "type": "Polygon",
        "coordinates": [
          [
            [
              -147.60006015737562,
              61.01427683876933
            ],
            [
              -147.60352555002086,
              61.00445822627452
            ],
            [
              -147.65232982977435,
              60.99377326561847
            ],
            [
              -147.6840959290222,
              61.00647970531759
            ],
            [
              -147.67832027461347,
              61.026694495748046
            ],
            [
              -147.65377374337652,
              61.03044867111369
            ],
            [
              -147.63240382206433,
              61.01658710053279
            ],
            [
              -147.60006015737562,
              61.01427683876933
            ]
          ]
        ]
      }
    },
    {
      "type": "Feature",
      "properties": {
        "name": "Unakwik Inlet",
        "district": "Northern",
        "notes": "Very rough extent"
      },
      "geometry": {
        "type": "Polygon",
        "coordinates": [
          [
            [
              -147.59417840215627,
              61.017652993635075
            ],
            [
              -147.61820797188733,
              61.03481697201438
            ],
            [
              -147.57701442377697,
              61.08905514369303
            ],
            [
              -147.57770098291215,
              61.15427826153442
            ],
            [
              -147.5152241016114,
              61.168696003373064
            ],
            [
              -147.45068754290514,
              61.0773836383951
            ],
            [
              -147.49874668236725,
              61.052667509528874
            ],
            [
              -147.52414937036863,
              61.01902611190538
            ],
            [
              -147.59417840215627,
              61.017652993635075
            ]
          ]
        ]
      }
    },
    {
      "type": "Feature",
      "properties": {
        "name": "Derickson Bay",
        "district": "Northern",
        "notes": ""
      },
      "geometry": {
        "type": "Polygon",
        "coordinates": [
          [
            [
              -147.83553739392747,
              60.877096671053515
            ],
            [
              -147.83127504537663,
              60.8868645531492
            ],
            [
              -147.78971714700597,
              60.87514309463436
            ],
            [
              -147.785987592024,
              60.854186547592775
            ],
            [
              -147.80872011762847,
              60.8563177218682
            ],
            [
              -147.8305646539515,
              60.867506386814156
            ],
            [
              -147.8305646539515,
              60.867506386814156
            ],
            [
              -147.8305646539515,
              60.867506386814156
            ],
            [
              -147.83553739392747,
              60.877096671053515
            ]
          ]
        ]
      }
    },
    {
      "type": "Feature",
      "properties": {
        "name": "Schoppe Bay",
        "district": "Northern",
        "notes": ""
      },
      "geometry": {
        "type": "Polygon",
        "coordinates": [
          [
            [
              -147.71086369881547,
              60.883845389592345
            ],
            [
              -147.70216140385753,
              60.895034054538314
            ],
            [
              -147.68813117321102,
              60.89343567383172
            ],
            [
              -147.65207880838517,
              60.90657791519678
            ],
            [
              -147.64284371985835,
              60.89823081595141
            ],
            [
              -147.65580836336716,
              60.88899572742462
            ],
            [
              -147.65811713549886,
              60.87425510535293
            ],
            [
              -147.66841781116338,
              60.87017035465835
            ],
            [
              -147.67481133398965,
              60.856317721868166
            ],
            [
              -147.71086369881547,
              60.883845389592345
            ]
          ]
        ]
      }
    },
    {
      "type": "Feature",
      "properties": {
        "name": "Miners Bay",
        "district": "Unakwik",
        "notes": ""
      },
      "geometry": {
        "type": "Polygon",
        "coordinates": [
          [
            [
              -147.51187850231867,
              61.081705446515684
            ],
            [
              -147.47069450264624,
              61.072095846592084
            ],
            [
              -147.46932170265717,
              61.06444738951006
            ],
            [
              -147.51501633086514,
              61.05934841812206
            ],
            [
              -147.51187850231867,
              61.081705446515684
            ]
          ]
        ]
      }
    },
    {
      "type": "Feature",
      "properties": {
        "name": "Esther Passage",
        "district": "Coghill",
        "notes": ""
      },
      "geometry": {
        "type": "Polygon",
        "coordinates": [
          [
            [
              -148.06286389259466,
              60.934325300657505
            ],
            [
              -148.04380278083516,
              60.93872401875586
            ],
            [
              -147.9845248178908,
              60.92343323679489
            ],
            [
              -147.93174020071066,
              60.90939923143356
            ],
            [
              -147.8827259133291,
              60.85368213552122
            ],
            [
              -147.87790826969757,
              60.82624251309817
            ],
            [
              -147.9204292113149,
              60.81095173113725
            ],
            [
              -147.9365578443422,
              60.836296725894364
            ],
            [
              -147.97698415829365,
              60.85368213552122
            ],
            [
              -147.99562634451996,
              60.86855399194891
            ],
            [
              -147.98536266895715,
              60.87148647068109
            ],
            [
              -147.94891614757086,
              60.86247957171784
            ],
            [
              -147.94472689223912,
              60.87986498134469
            ],
            [
              -148.01699154671192,
              60.910656008033065
            ],
            [
              -148.05301914256503,
              60.92217646019539
            ],
            [
              -148.0724991798577,
              60.92238592296197
            ],
            [
              -148.074384344757,
              60.926575178293746
            ],
            [
              -148.06286389259466,
              60.934325300657505
            ]
          ]
        ]
      }
    },
    {
      "type": "Feature",
      "properties": {
        "name": "Golden River",
        "district": "Coghill",
        "notes": "Rough river delta extent"
      },
      "geometry": {
        "type": "Polygon",
        "coordinates": [
          [
            [
              -147.99172145975,
              60.97985288660255
            ],
            [
              -147.98426911695216,
              60.97455780093038
            ],
            [
              -147.98015071698492,
              60.951808543968525
            ],
            [
              -148.00368443108343,
              60.95808420106145
            ],
            [
              -148.01427460242778,
              60.971223858099776
            ],
            [
              -147.99172145975,
              60.97985288660255
            ]
          ]
        ]
      }
    },
    {
      "type": "Feature",
      "properties": {
        "name": "Coghill River",
        "district": "Coghill",
        "notes": "River delta again"
      },
      "geometry": {
        "type": "Polygon",
        "coordinates": [
          [
            [
              -147.94546399994542,
              61.06973874279236
            ],
            [
              -147.94526788566125,
              61.07248434277054
            ],
            [
              -147.9368349714426,
              61.07640662845362
            ],
            [
              -147.92526422867752,
              61.078759999863465
            ],
            [
              -147.87682400049138,
              61.08150559984161
            ],
            [
              -147.8891792003931,
              61.062286399994505
            ],
            [
              -147.93722720001094,
              61.04247885729489
            ],
            [
              -147.94546399994542,
              61.06973874279236
            ]
          ]
        ]
      }
    },
    {
      "type": "Feature",
      "properties": {
        "name": "Barry Arm",
        "district": "Coghill",
        "notes": "Arm feature rough"
      },
      "geometry": {
        "type": "Polygon",
        "coordinates": [
          [
            [
              -148.18589908507158,
              60.99498285737676
            ],
            [
              -148.17962342797864,
              61.04832594266679
            ],
            [
              -148.19688148498423,
              61.11422034214263
            ],
            [
              -148.12941817123513,
              61.13932297051445
            ],
            [
              -148.13490937119144,
              61.100100113683574
            ],
            [
              -148.10666891427323,
              61.05695497116957
            ],
            [
              -148.06587714316913,
              61.05381714262312
            ],
            [
              -148.08391965731133,
              61.008318628699286
            ],
            [
              -148.18589908507158,
              60.99498285737676
            ]
          ]
        ]
      }
    },
    {
      "type": "Feature",
      "properties": {
        "name": "Harrison Lagoon",
        "district": "Coghill",
        "notes": ""
      },
      "geometry": {
        "type": "Polygon",
        "coordinates": [
          [
            [
              -148.20092460807066,
              60.98197435666654
            ],
            [
              -148.21317590176238,
              60.98250702160968
            ],
            [
              -148.21157790693303,
              60.99635631013072
            ],
            [
              -148.19719595346885,
              60.99742164001698
            ],
            [
              -148.1947101837343,
              60.98818878100292
            ],
            [
              -148.20092460807066,
              60.98197435666654
            ]
          ]
        ]
      }
    },
    {
      "type": "Feature",
      "properties": {
        "name": "Hobo Bay",
        "district": "Coghill",
        "notes": ""
      },
      "geometry": {
        "type": "Polygon",
        "coordinates": [
          [
            [
              -148.23486468307473,
              60.94279174480928
            ],
            [
              -148.2493058215326,
              60.95109539942255
            ],
            [
              -148.24461245153378,
              60.96806373711054
            ],
            [
              -148.21952097346323,
              60.96607808057259
            ],
            [
              -148.21879891654035,
              60.952720027499055
            ],
            [
              -148.23486468307473,
              60.94279174480928
            ]
          ]
        ]
      }
    },
    {
      "type": "Feature",
      "properties": {
        "name": "Bettles Bay",
        "district": "Coghill",
        "notes": ""
      },
      "geometry": {
        "type": "Polygon",
        "coordinates": [
          [
            [
              -148.2682849773126,
              60.91458849443029
            ],
            [
              -148.2921128557681,
              60.91332489481523
            ],
            [
              -148.3453645538315,
              60.95213545442079
            ],
            [
              -148.33814398460254,
              60.965493507494294
            ],
            [
              -148.31359404922418,
              60.96982584903165
            ],
            [
              -148.25167766808605,
              60.93733328750146
            ],
            [
              -148.2682849773126,
              60.91458849443029
            ]
          ]
        ]
      }
    },
    {
      "type": "Feature",
      "properties": {
        "name": "Hummer Bay",
        "district": "Coghill",
        "notes": ""
      },
      "geometry": {
        "type": "Polygon",
        "coordinates": [
          [
            [
              -148.29471612593326,
              60.87631473012995
            ],
            [
              -148.306788144405,
              60.877563559627085
            ],
            [
              -148.32274541020098,
              60.89254951359198
            ],
            [
              -148.3298221106844,
              60.90975560888499
            ],
            [
              -148.31927643937578,
              60.91586099753742
            ],
            [
              -148.30553931490795,
              60.91516720337236
            ],
            [
              -148.28902701377993,
              60.89310454892398
            ],
            [
              -148.29471612593326,
              60.87631473012995
            ]
          ]
        ]
      }
    },
    {
      "type": "Feature",
      "properties": {
        "name": "Pirate Cove",
        "district": "Coghill",
        "notes": ""
      },
      "geometry": {
        "type": "Polygon",
        "coordinates": [
          [
            [
              -148.29475503533203,
              60.87676469740476
            ],
            [
              -148.29156358217284,
              60.863443849435974
            ],
            [
              -148.31029602462897,
              60.85692218428459
            ],
            [
              -148.3141812719532,
              60.870243032253406
            ],
            [
              -148.29475503533203,
              60.87676469740476
            ]
          ]
        ]
      }
    },
    {
      "type": "Feature",
      "properties": {
        "name": "Pigot Bay",
        "district": "Coghill",
        "notes": ""
      },
      "geometry": {
        "type": "Polygon",
        "coordinates": [
          [
            [
              -148.33657173276129,
              60.81621140537154
            ],
            [
              -148.42499719458382,
              60.842530761245875
            ],
            [
              -148.42670132553974,
              60.85445967793718
            ],
            [
              -148.39299740218982,
              60.864873811556514
            ],
            [
              -148.34831130156857,
              60.85597446100906
            ],
            [
              -148.31347129091472,
              60.8341994543504
            ],
            [
              -148.33657173276129,
              60.81621140537154
            ]
          ]
        ]
      }
    },
    {
      "type": "Feature",
      "properties": {
        "name": "Logging Camp Bay",
        "district": "Northwestern",
        "notes": "Unsure where it begins and passage canal starts"
      },
      "geometry": {
        "type": "Polygon",
        "coordinates": [
          [
            [
              -148.44571661163047,
              60.82610119865094
            ],
            [
              -148.4598972455712,
              60.83619126510871
            ],
            [
              -148.4129920717673,
              60.83673667410647
            ],
            [
              -148.4042655278038,
              60.822010631168006
            ],
            [
              -148.42144591123196,
              60.81710195018853
            ],
            [
              -148.44571661163047,
              60.82610119865094
            ]
          ]
        ]
      }
    },
    {
      "type": "Feature",
      "properties": {
        "name": "Blackstone Bay",
        "district": "Northwestern",
        "notes": ""
      },
      "geometry": {
        "type": "Polygon",
        "coordinates": [
          [
            [
              -148.47542863040186,
              60.762304101599334
            ],
            [
              -148.4385036079925,
              60.76314971279955
            ],
            [
              -148.44414101599392,
              60.745673747995156
            ],
            [
              -148.46753625919985,
              60.745391877595054
            ],
            [
              -148.48613970560456,
              60.75666669359791
            ],
            [
              -148.47542863040186,
              60.762304101599334
            ]
          ]
        ]
      }
    },
    {
      "type": "Feature",
      "properties": {
        "name": "Passage Canal (Shotgun Cove)",
        "district": "Northwestern",
        "aliases": ["Passage Canal"],
        "notes": ""
      },
      "geometry": {
        "type": "Polygon",
        "coordinates": [
          [
            [
              -148.55245589681186,
              60.80220048459816
            ],
            [
              -148.53169554849183,
              60.79822721219236
            ],
            [
              -148.53060289858024,
              60.79097599005186
            ],
            [
              -148.57063361806817,
              60.77667220939117
            ],
            [
              -148.57669285848692,
              60.785115413253436
            ],
            [
              -148.56358105954794,
              60.79822721219236
            ],
            [
              -148.55245589681186,
              60.80220048459816
            ]
          ]
        ]
      }
    },
    {
      "type": "Feature",
      "properties": {
        "name": "Cochrane Bay",
        "district": "Northwestern",
        "notes": ""
      },
      "geometry": {
        "type": "Polygon",
        "coordinates": [
          [
            [
              -148.36903959530795,
              60.74666571742134
            ],
            [
              -148.28966912890863,
              60.73227210952519
            ],
            [
              -148.35053352801276,
              60.630694362371614
            ],
            [
              -148.43854015914985,
              60.60802442993505
            ],
            [
              -148.44573696309797,
              60.633727301178325
            ],
            [
              -148.46588801415274,
              60.65264461441338
            ],
            [
              -148.41941722294482,
              60.6750575181376
            ],
            [
              -148.42805338768258,
              60.72317329310506
            ],
            [
              -148.39700431922066,
              60.73227210952519
            ],
            [
              -148.36903959530795,
              60.74666571742134
            ]
          ]
        ]
      }
    },
    {
      "type": "Feature",
      "properties": {
        "name": "Long Bay (Culross Passage)",
        "district": "Northwestern",
        "aliases": ["Long Bay"],
        "notes": ""
      },
      "geometry": {
        "type": "Polygon",
        "coordinates": [
          [
            [
              -148.2563804462022,
              60.701894552295535
            ],
            [
              -148.25478650106916,
              60.69525311424117
            ],
            [
              -148.28732954753536,
              60.67227373857322
            ],
            [
              -148.3028705125825,
              60.65952217750893
            ],
            [
              -148.30499577275987,
              60.670546964679104
            ],
            [
              -148.28294619841952,
              60.69605008680767
            ],
            [
              -148.2563804462022,
              60.701894552295535
            ]
          ]
        ]
      }
    },
    {
      "type": "Feature",
      "properties": {
        "name": "Port Nellie Juan (Mink Creek)",
        "district": "Northwestern",
        "aliases": ["Port Nellie Juan"],
        "notes": ""
      },
      "geometry": {
        "type": "Polygon",
        "coordinates": [
          [
            [
              -148.28389044469236,
              60.56825477765383
            ],
            [
              -148.29504806062363,
              60.57595884579685
            ],
            [
              -148.28628136239192,
              60.58353008517875
            ],
            [
              -148.26516158937918,
              60.5784825922575
            ],
            [
              -148.2678181646009,
              60.567989120131664
            ],
            [
              -148.28389044469236,
              60.56825477765383
            ]
          ]
        ]
      }
    },
    {
      "type": "Feature",
      "properties": {
        "name": "East Finger Inlet",
        "district": "Northwestern",
        "notes": ""
      },
      "geometry": {
        "type": "Polygon",
        "coordinates": [
          [
            [
              -148.38497663773418,
              60.54125229667129
            ],
            [
              -148.37367313067782,
              60.56116799958014
            ],
            [
              -148.35235794594297,
              60.57344037866989
            ],
            [
              -148.33804017033825,
              60.56655062198794
            ],
            [
              -148.358601787936,
              60.534254887541245
            ],
            [
              -148.38497663773418,
              60.54125229667129
            ]
          ]
        ]
      }
    },
    {
      "type": "Feature",
      "properties": {
        "name": "West Finger Inlet",
        "district": "Northwestern",
        "notes": ""
      },
      "geometry": {
        "type": "Polygon",
        "coordinates": [
          [
            [
              -148.43934112405287,
              60.56364400588773
            ],
            [
              -148.45516603393176,
              60.56913428074372
            ],
            [
              -148.40015563292414,
              60.60293714946457
            ],
            [
              -148.38605316221575,
              60.59324842913058
            ],
            [
              -148.42760700720387,
              60.56622766464352
            ],
            [
              -148.43934112405287,
              60.56364400588773
            ]
          ]
        ]
      }
    },
    {
      "type": "Feature",
      "properties": {
        "name": "Greystone Bay",
        "district": "Northwestern",
        "notes": ""
      },
      "geometry": {
        "type": "Polygon",
        "coordinates": [
          [
            [
              -148.4310361376464,
              60.531392963672076
            ],
            [
              -148.39427139675405,
              60.51938314831393
            ],
            [
              -148.43593810309872,
              60.51006941395449
            ],
            [
              -148.4604479303603,
              60.52526550685667
            ],
            [
              -148.4310361376464,
              60.531392963672076
            ]
          ]
        ]
      }
    },
    {
      "type": "Feature",
      "properties": {
        "name": "McClure Bay",
        "district": "Northwestern",
        "notes": ""
      },
      "geometry": {
        "type": "Polygon",
        "coordinates": [
          [
            [
              -148.1904712050959,
              60.55844669895913
            ],
            [
              -148.1598284353156,
              60.560197714375164
            ],
            [
              -148.14406929657144,
              60.50241420564655
            ],
            [
              -148.1602661891696,
              60.47308469742834
            ],
            [
              -148.202290559154,
              60.464329620348195
            ],
            [
              -148.20798135925605,
              60.50722949804065
            ],
            [
              -148.1904712050959,
              60.55844669895913
            ]
          ]
        ]
      }
    },
    {
      "type": "Feature",
      "properties": {
        "name": "Eshamy Bay",
        "district": "Eshamy",
        "notes": ""
      },
      "geometry": {
        "type": "Polygon",
        "coordinates": [
          [
            [
              -147.97286544001773,
              60.48383397615255
            ],
            [
              -147.96424082754635,
              60.46266447281372
            ],
            [
              -147.9658089389048,
              60.44031888595603
            ],
            [
              -148.0157924884549,
              60.43894678851736
            ],
            [
              -148.11046721172042,
              60.44659133138971
            ],
            [
              -148.10693896116393,
              60.46874090432765
            ],
            [
              -147.97286544001773,
              60.48383397615255
            ]
          ]
        ]
      }
    },
    {
      "type": "Feature",
      "properties": {
        "name": "Gumboot Creek",
        "district": "Eshamy",
        "notes": ""
      },
      "geometry": {
        "type": "Polygon",
        "coordinates": [
          [
            [
              -147.98526773646995,
              60.47596835683709
            ],
            [
              -147.98754851072502,
              60.466845259816786
            ],
            [
              -148.00300709178717,
              60.46152345322158
            ],
            [
              -148.01187676944576,
              60.474194421305306
            ],
            [
              -148.0047810273189,
              60.48610513130403
            ],
            [
              -147.98526773646995,
              60.47596835683709
            ]
          ]
        ]
      }
    },
    {
      "type": "Feature",
      "properties": {
        "name": "Dangerous Passage",
        "district": "Southwestern",
        "notes": ""
      },
      "geometry": {
        "type": "Polygon",
        "coordinates": [
          [
            [
              -148.11458401643068,
              60.380933503523416
            ],
            [
              -148.04874696384425,
              60.403677212598716
            ],
            [
              -148.03258696002757,
              60.349212014549956
            ],
            [
              -148.11099290447143,
              60.3450223839308
            ],
            [
              -148.11458401643068,
              60.380933503523416
            ]
          ]
        ]
      }
    },
    {
      "type": "Feature",
      "properties": {
        "name": "Ewan Bay",
        "district": "Southwestern",
        "notes": ""
      },
      "geometry": {
        "type": "Polygon",
        "coordinates": [
          [
            [
              -148.12834994560785,
              60.35998535042771
            ],
            [
              -148.19059588623503,
              60.39110832074127
            ],
            [
              -148.16904921447946,
              60.42103425373516
            ],
            [
              -148.09483290065475,
              60.37734239156416
            ],
            [
              -148.12834994560785,
              60.35998535042771
            ]
          ]
        ]
      }
    },
    {
      "type": "Feature",
      "properties": {
        "name": "Paddy Bay",
        "district": "Southwestern",
        "notes": ""
      },
      "geometry": {
        "type": "Polygon",
        "coordinates": [
          [
            [
              -148.08944623271586,
              60.37853942888386
            ],
            [
              -148.12894846426772,
              60.42043573507523
            ],
            [
              -148.07149067291957,
              60.424625365694425
            ],
            [
              -148.0523380758035,
              60.393502395380786
            ],
            [
              -148.08944623271586,
              60.37853942888386
            ]
          ]
        ]
      }
    },
    {
      "type": "Feature",
      "properties": {
        "name": "Jackpot Bay",
        "district": "Southwestern",
        "notes": ""
      },
      "geometry": {
        "type": "Polygon",
        "coordinates": [
          [
            [
              -148.21202370144198,
              60.30519554643793
            ],
            [
              -148.29162668320558,
              60.30998369571696
            ],
            [
              -148.2826489033074,
              60.36444889376572
            ],
            [
              -148.21741036938087,
              60.37881334160273
            ],
            [
              -148.1755140631895,
              60.3399096287108
            ],
            [
              -148.21202370144198,
              60.30519554643793
            ]
          ]
        ]
      }
    },
    {
      "type": "Feature",
      "properties": {
        "name": "Whale Bay",
        "district": "Southwestern",
        "notes": ""
      },
      "geometry": {
        "type": "Polygon",
        "coordinates": [
          [
            [
              -148.18868147370677,
              60.24773775508974
            ],
            [
              -148.13960294359688,
              60.23337330725275
            ],
            [
              -148.16114961535246,
              60.16035403074774
            ],
            [
              -148.21022814546234,
              60.13401920971322
            ],
            [
              -148.23776000381667,
              60.14958069486995
            ],
            [
              -148.21322073876172,
              60.19925774363978
            ],
            [
              -148.3143703922809,
              60.1974621876601
            ],
            [
              -148.31018076166174,
              60.21661478477618
            ],
            [
              -148.25810963825248,
              60.24474516179039
            ],
            [
              -148.18868147370677,
              60.24773775508974
            ]
          ]
        ]
      }
    },
    {
      "type": "Feature",
      "properties": {
        "name": "Port Bainbridge",
        "district": "Southwestern",
        "notes": ""
      },
      "geometry": {
        "type": "Polygon",
        "coordinates": [
          [
            [
              -148.38019482485126,
              60.124292583757644
            ],
            [
              -148.38318741815064,
              60.1727725952077
            ],
            [
              -148.34188963061914,
              60.19372074830341
            ],
            [
              -148.26527924215495,
              60.18175037510582
            ],
            [
              -148.28981850720987,
              60.11830739715889
            ],
            [
              -148.38019482485126,
              60.124292583757644
            ]
          ]
        ]
      }
    },
    {
      "type": "Feature",
      "properties": {
        "name": "Hogg Bay",
        "district": "Southwestern",
        "notes": ""
      },
      "geometry": {
        "type": "Polygon",
        "coordinates": [
          [
            [
              -148.24388001145002,
              60.09535333778604
            ],
            [
              -148.17086073494505,
              60.10792222964349
            ],
            [
              -148.16547406700616,
              60.055851106234215
            ],
            [
              -148.24507704876976,
              60.05106295695516
            ],
            [
              -148.24388001145002,
              60.09535333778604
            ]
          ]
        ]
      }
    },
    {
      "type": "Feature",
      "properties": {
        "name": "Bainbridge Island",
        "district": "Southwestern",
        "notes": ""
      },
      "geometry": {
        "type": "Polygon",
        "coordinates": [
          [
            [
              -148.29954224681856,
              60.109119266963205
            ],
            [
              -148.22772000763334,
              60.11749852820149
            ],
            [
              -148.12956294741358,
              60.16059187171267
            ],
            [
              -148.06492293214689,
              60.215655588421285
            ],
            [
              -148.02781477523453,
              60.1899192860466
            ],
            [
              -148.1062207196784,
              60.07260962871076
            ],
            [
              -148.16846666030557,
              60.01694739334221
            ],
            [
              -148.29894372815866,
              59.9989918335459
            ],
            [
              -148.3444311463093,
              60.037895546437895
            ],
            [
              -148.29954224681856,
              60.109119266963205
            ]
          ]
        ]
      }
    },
    {
      "type": "Feature",
      "properties": {
        "name": "Ikuta Bay",
        "district": "Southwestern",
        "notes": ""
      },
      "geometry": {
        "type": "Polygon",
        "coordinates": [
          [
            [
              -148.0184337301634,
              60.12131488104732
            ],
            [
              -147.996817741799,
              60.1297414527826
            ],
            [
              -147.9821628344333,
              60.12314674446808
            ],
            [
              -147.99461950569415,
              60.09163869363182
            ],
            [
              -148.02246382968895,
              60.103728992208524
            ],
            [
              -148.02356294774137,
              60.11581929078517
            ],
            [
              -148.0184337301634,
              60.12131488104732
            ]
          ]
        ]
      }
    },
    {
      "type": "Feature",
      "properties": {
        "name": "Mummy Bay",
        "district": "Southwestern",
        "notes": ""
      },
      "geometry": {
        "type": "Polygon",
        "coordinates": [
          [
            [
              -147.86356031235923,
              60.21652386923852
            ],
            [
              -147.8009105833709,
              60.259389473283136
            ],
            [
              -147.7653724330091,
              60.23374338539316
            ],
            [
              -147.78149283111136,
              60.19967072576795
            ],
            [
              -147.84524167815212,
              60.1952742535582
            ],
            [
              -147.86356031235923,
              60.21652386923852
            ]
          ]
        ]
      }
    },
    {
      "type": "Feature",
      "properties": {
        "name": "Thumb Bay",
        "district": "Southwestern",
        "notes": ""
      },
      "geometry": {
        "type": "Polygon",
        "coordinates": [
          [
            [
              -147.8254596623287,
              60.20920640828343
            ],
            [
              -147.81130546429802,
              60.2162835072988
            ],
            [
              -147.78225211044554,
              60.20883392938786
            ],
            [
              -147.78672185719208,
              60.19765956252149
            ],
            [
              -147.82396974674654,
              60.19616964693931
            ],
            [
              -147.8254596623287,
              60.20920640828343
            ]
          ]
        ]
      }
    },
    {
      "type": "Feature",
      "properties": {
        "name": "Hogan Bay",
        "district": "Southwestern",
        "notes": ""
      },
      "geometry": {
        "type": "Polygon",
        "coordinates": [
          [
            [
              -147.74842481874848,
              60.1828286944972
            ],
            [
              -147.77644764765662,
              60.19115980579425
            ],
            [
              -147.7681165363596,
              60.21236627091386
            ],
            [
              -147.72835441426022,
              60.20062697772266
            ],
            [
              -147.74842481874848,
              60.1828286944972
            ]
          ]
        ]
      }
    },
    {
      "type": "Feature",
      "properties": {
        "name": "Snug Harbor",
        "district": "Southwestern",
        "notes": ""
      },
      "geometry": {
        "type": "Polygon",
        "coordinates": [
          [
            [
              -147.70525451475487,
              60.24228253420778
            ],
            [
              -147.74842481874848,
              60.22372687722802
            ],
            [
              -147.77947714267373,
              60.266897181221694
            ],
            [
              -147.73176259615445,
              60.266897181221694
            ],
            [
              -147.70525451475487,
              60.24228253420778
            ]
          ]
        ]
      }
    },
    {
      "type": "Feature",
      "properties": {
        "name": "Zaikof Bay",
        "district": "Montague",
        "notes": ""
      },
      "geometry": {
        "type": "Polygon",
        "coordinates": [
          [
            [
              -147.0096950506656,
              60.33970883929223
            ],
            [
              -146.93357898836106,
              60.30600570722702
            ],
            [
              -147.09187010300434,
              60.25109611004214
            ],
            [
              -147.13806990201508,
              60.257533786953445
            ],
            [
              -147.12254374005244,
              60.29010085838726
            ],
            [
              -147.0096950506656,
              60.33970883929223
            ]
          ]
        ]
      }
    },
    {
      "type": "Feature",
      "properties": {
        "name": "Rocky Bay",
        "district": "Montague",
        "notes": ""
      },
      "geometry": {
        "type": "Polygon",
        "coordinates": [
          [
            [
              -147.09242444431882,
              60.37228884088287
            ],
            [
              -147.01209487806906,
              60.342112125519144
            ],
            [
              -147.12217613552244,
              60.326386231597304
            ],
            [
              -147.15872821328688,
              60.339561980558855
            ],
            [
              -147.12727642544306,
              60.35996314024131
            ],
            [
              -147.09242444431882,
              60.37228884088287
            ]
          ]
        ]
      }
    },
    {
      "type": "Feature",
      "properties": {
        "name": "Stockdale Harbor",
        "district": "Montague",
        "notes": ""
      },
      "geometry": {
        "type": "Polygon",
        "coordinates": [
          [
            [
              -147.2126758456018,
              60.3311384060019
            ],
            [
              -147.14552202831365,
              60.323062946960896
            ],
            [
              -147.14552202831365,
              60.323062946960896
            ],
            [
              -147.1863243476786,
              60.279710482635714
            ],
            [
              -147.23010183616393,
              60.28906101415679
            ],
            [
              -147.2126758456018,
              60.3311384060019
            ]
          ]
        ]
      }
    },
    {
      "type": "Feature",
      "properties": {
        "name": "Port Chalmers",
        "district": "Montague",
        "notes": ""
      },
      "geometry": {
        "type": "Polygon",
        "coordinates": [
          [
            [
              -147.2869977135953,
              60.222920354429625
            ],
            [
              -147.26822926450288,
              60.25858040770522
            ],
            [
              -147.20629338249793,
              60.257641985250615
            ],
            [
              -147.1593722597669,
              60.26092646384179
            ],
            [
              -147.21239312845296,
              60.19805215938218
            ],
            [
              -147.292628248323,
              60.20227506042795
            ],
            [
              -147.2869977135953,
              60.222920354429625
            ]
          ]
        ]
      }
    },
    {
      "type": "Feature",
      "properties": {
        "name": "Hanning Bay",
        "district": "Montague",
        "notes": ""
      },
      "geometry": {
        "type": "Polygon",
        "coordinates": [
          [
            [
              -147.7472996466262,
              59.948398367835004
            ],
            [
              -147.69913932357576,
              59.98775519097297
            ],
            [
              -147.63647911831657,
              59.97221960289221
            ],
            [
              -147.66962170622227,
              59.9307913680101
            ],
            [
              -147.7472996466262,
              59.948398367835004
            ]
          ]
        ]
      }
    },
    {
      "type": "Feature",
      "properties": {
        "name": "MacLeod Harbor",
        "district": "Montague",
        "notes": ""
      },
      "geometry": {
        "type": "Polygon",
        "coordinates": [
          [
            [
              -147.81291038194607,
              59.908187279141366
            ],
            [
              -147.72487538282158,
              59.89316954399661
            ],
            [
              -147.73730385328622,
              59.866759044259275
            ],
            [
              -147.870392057845,
              59.86572333838718
            ],
            [
              -147.81291038194607,
              59.908187279141366
            ]
          ]
        ]
      }
    },
    {
      "type": "Feature",
      "properties": {
        "name": "Montague Strait",
        "district": "Montague",
        "notes": ""
      },
      "geometry": {
        "type": "Polygon",
        "coordinates": [
          [
            [
              -147.6968693888632,
              59.98834747283153
            ],
            [
              -147.72918198936782,
              60.066498878703165
            ],
            [
              -147.42634529161515,
              60.222801690446516
            ],
            [
              -147.34293369496368,
              60.080776539391266
            ],
            [
              -147.6968693888632,
              59.98834747283153
            ]
          ]
        ]
      }
    },
    {
      "type": "Feature",
      "properties": {
        "name": "Green Island",
        "district": "Montague",
        "notes": ""
      },
      "geometry": {
        "type": "Polygon",
        "coordinates": [
          [
            [
              -147.48152939145479,
              60.258088173849416
            ],
            [
              -147.50076173931848,
              60.309374434819325
            ],
            [
              -147.33408139116642,
              60.32402765223927
            ],
            [
              -147.3533137390301,
              60.28739460868933
            ],
            [
              -147.48152939145479,
              60.258088173849416
            ]
          ]
        ]
      }
    },
    {
      "type": "Feature",
      "properties": {
        "name": "Port Etches",
        "district": "Southeastern",
        "notes": ""
      },
      "geometry": {
        "type": "Polygon",
        "coordinates": [
          [
            [
              -146.61402116742278,
              60.3571514913447
            ],
            [
              -146.47373226701106,
              60.39244869513732
            ],
            [
              -146.45864937303764,
              60.34365109698808
            ],
            [
              -146.61746337428687,
              60.301064102239714
            ],
            [
              -146.61402116742278,
              60.3571514913447
            ]
          ]
        ]
      }
    },
    {
      "type": "Feature",
      "properties": {
        "name": "Constantine Harbor",
        "district": "Southeastern",
        "notes": ""
      },
      "geometry": {
        "type": "Polygon",
        "coordinates": [
          [
            [
              -146.65818048041956,
              60.331511151598434
            ],
            [
              -146.69998052474105,
              60.349276170435076
            ],
            [
              -146.59548041393737,
              60.38376120700032
            ],
            [
              -146.5766703939927,
              60.36181618373155
            ],
            [
              -146.65818048041956,
              60.331511151598434
            ]
          ]
        ]
      }
    },
    {
      "type": "Feature",
      "properties": {
        "name": "Deer Cove",
        "district": "Southeastern",
        "notes": ""
      },
      "geometry": {
        "type": "Polygon",
        "coordinates": [
          [
            [
              -146.72860500997234,
              60.38803624473675
            ],
            [
              -146.71397499445982,
              60.40423376191134
            ],
            [
              -146.6930749722991,
              60.39482875193903
            ],
            [
              -146.6993449789473,
              60.37288372867023
            ],
            [
              -146.72860500997234,
              60.38803624473675
            ]
          ]
        ]
      }
    },
    {
      "type": "Feature",
      "properties": {
        "name": "Juania Cove",
        "district": "Southeastern",
        "notes": ""
      },
      "geometry": {
        "type": "Polygon",
        "coordinates": [
          [
            [
              -146.70450151925667,
              60.412365448739166
            ],
            [
              -146.6838257603463,
              60.40878695200466
            ],
            [
              -146.70291107626358,
              60.395069381189174
            ],
            [
              -146.715038204086,
              60.403419206902946
            ],
            [
              -146.70450151925667,
              60.412365448739166
            ]
          ]
        ]
      }
    },
    {
      "type": "Feature",
      "properties": {
        "name": "Shelter Bay",
        "district": "Southeastern",
        "notes": ""
      },
      "geometry": {
        "type": "Polygon",
        "coordinates": [
          [
            [
              -146.68509606755,
              60.42425316085082
            ],
            [
              -146.6687940268707,
              60.439759980033585
            ],
            [
              -146.6316174219069,
              60.431410154319785
            ],
            [
              -146.6411600798655,
              60.41152961690598
            ],
            [
              -146.68509606755,
              60.42425316085082
            ]
          ]
        ]
      }
    },
    {
      "type": "Feature",
      "properties": {
        "name": "Anderson Bay",
        "district": "Southeastern",
        "notes": ""
      },
      "geometry": {
        "type": "Polygon",
        "coordinates": [
          [
            [
              -146.53807093273736,
              60.481653927310816
            ],
            [
              -146.52875015933233,
              60.47772588709011
            ],
            [
              -146.5244892343472,
              60.47692696365541
            ],
            [
              -146.51836415468102,
              60.476261194126444
            ],
            [
              -146.49985576177673,
              60.4713344996124
            ],
            [
              -146.5051819180082,
              60.46827195977931
            ],
            [
              -146.5058476875371,
              60.46321211135938
            ],
            [
              -146.56443540608302,
              60.453491876237045
            ],
            [
              -146.5665658685756,
              60.46600834338092
            ],
            [
              -146.53807093273736,
              60.481653927310816
            ]
          ]
        ]
      }
    },
    {
      "type": "Feature",
      "properties": {
        "name": "Double Bay",
        "district": "Southeastern",
        "notes": ""
      },
      "geometry": {
        "type": "Polygon",
        "coordinates": [
          [
            [
              -146.49562755146138,
              60.47133019335122
            ],
            [
              -146.47485554215874,
              60.47172965506859
            ],
            [
              -146.4530183016098,
              60.467601883989246
            ],
            [
              -146.4366403711981,
              60.46653665274296
            ],
            [
              -146.4349093704229,
              60.45042503014278
            ],
            [
              -146.47565446559346,
              60.440172179397265
            ],
            [
              -146.50308417018542,
              60.448827183273366
            ],
            [
              -146.5049483248664,
              60.46573772930817
            ],
            [
              -146.50361678580856,
              60.46880026914129
            ],
            [
              -146.49895639910602,
              60.471063885539635
            ],
            [
              -146.49562755146138,
              60.47133019335122
            ]
          ]
        ]
      }
    },
    {
      "type": "Feature",
      "properties": {
        "name": "Hawkins Cutoff",
        "district": "Southeastern",
        "notes": ""
      },
      "geometry": {
        "type": "Polygon",
        "coordinates": [
          [
            [
              -146.36564381377232,
              60.46480847612257
            ],
            [
              -146.2655930173724,
              60.473904003067986
            ],
            [
              -146.05474216545517,
              60.5053249143341
            ],
            [
              -145.87531222480405,
              60.56072494209276
            ],
            [
              -145.78104949100577,
              60.621913032453044
            ],
            [
              -145.6421359885662,
              60.64258468460178
            ],
            [
              -145.6652882389728,
              60.567339870780366
            ],
            [
              -145.83231518833466,
              60.466462208294494
            ],
            [
              -145.9489033064536,
              60.46480847612257
            ],
            [
              -146.11593025581547,
              60.40527411793419
            ],
            [
              -146.3937572606946,
              60.37964126926972
            ],
            [
              -146.40946771632767,
              60.45405921700521
            ],
            [
              -146.36564381377232,
              60.46480847612257
            ]
          ]
        ]
      }
    },
    {
      "type": "Feature",
      "properties": {
        "name": "Canoe Passage",
        "district": "Southeastern",
        "notes": ""
      },
      "geometry": {
        "type": "Polygon",
        "coordinates": [
          [
            [
              -146.16294455674648,
              60.52617115928245
            ],
            [
              -146.11984890978644,
              60.52758413131392
            ],
            [
              -146.07357407575563,
              60.518046570101475
            ],
            [
              -146.0555586823543,
              60.49791171865292
            ],
            [
              -146.13609808814843,
              60.49791171865292
            ],
            [
              -146.16294455674648,
              60.52617115928245
            ]
          ]
        ]
      }
    },
    {
      "type": "Feature",
      "properties": {
        "name": "Windy Bay",
        "district": "Southeastern",
        "notes": ""
      },
      "geometry": {
        "type": "Polygon",
        "coordinates": [
          [
            [
              -145.95654980071993,
              60.57354696509348
            ],
            [
              -145.9257401042059,
              60.56352453369733
            ],
            [
              -145.93873214490458,
              60.545706877881926
            ],
            [
              -146.00294994607242,
              60.56797894765112
            ],
            [
              -145.96026181234814,
              60.57577417207039
            ],
            [
              -145.95654980071993,
              60.57354696509348
            ]
          ]
        ]
      }
    }
  ]
}